[Satellite]
VERSION=1.1
NAME=CZ-6A DEB
NICKNAME=CZ-6A DEB
TLE1=1 54322U 22151BR  22341.96059251  .00009315  00000+0  20721-2 0  9997
TLE2=2 54322  98.7319 347.4984 0197658 227.0595 131.3869 14.45780648  3180
STATUS=0
